#cP2006 12 26  0  0  0.00000000      96 ORBIT IGS05 HLM  IGS
## 1407 172800.00000000   900.00000000 54095 0.0000000000000
+   31   G01G02G03G04G05G06G07G08G09G10G11G12G13G14G15G16G17
+        G18G19G20G21G22G23G24G25G26G27G28G29G30G31  0  0  0
+          0  0  0  0  0  0  0  0  0  0  0  0  0  0  0  0  0
+          0  0  0  0  0  0  0  0  0  0  0  0  0  0  0  0  0
+          0  0  0  0  0  0  0  0  0  0  0  0  0  0  0  0  0
++         3  3  3  3  3  3  3  3  3  3  3  4  3  3  4  3  3
++         3  3  3  3  3  3  3  3  3  3  3  3  3  3  0  0  0
++         0  0  0  0  0  0  0  0  0  0  0  0  0  0  0  0  0
++         0  0  0  0  0  0  0  0  0  0  0  0  0  0  0  0  0
++         0  0  0  0  0  0  0  0  0  0  0  0  0  0  0  0  0
%c G  cc GPS ccc cccc cccc cccc cccc ccccc ccccc ccccc ccccc
%c cc cc ccc ccc cccc cccc cccc cccc ccccc ccccc ccccc ccccc
%f  1.2500000  1.025000000  0.00000000000  0.000000000000000
%f  0.0000000  0.000000000  0.00000000000  0.000000000000000
%i    0    0    0    0      0      0      0      0         0
%i    0    0    0    0      0      0      0      0         0
/* FINAL ORBIT COMBINATION FROM WEIGHTED AVERAGE OF:        
/* cod emr esa gfz jpl mit ngs sio                          
/* REFERENCED TO IGS TIME (IGST) AND TO WEIGHTED MEAN POLE: 
/* PCV:IGS05_1402 OL/AL:FES2004  NONE     Y  ORB:CMB CLK:CMB
*  2006 12 26 21  0  0.00000000
PG01 -10135.371814  18983.989561  15733.591409     97.668011  9  7  9 163       
PG02  -1751.787636 -16771.160558  20340.099464     67.614123  5 10  9 123       
PG03  -4256.463363  20320.561281 -16582.685283    482.144486  8  9 10 166       
PG04  13496.103944 -10012.774227  20587.358783    349.626694  7  7  9 152       
PG05 -13585.819387 -18192.490059  13675.746385    446.788685  2  9  6 163       
PG06 -21495.757804   1938.441537  15699.177375    490.104636  7  9 10 169       
PG07 -22894.907351   8002.067616  11221.968728    463.557079  6  9  8 164       
PG08  21162.483703  -1699.970019 -16353.906990    -91.055332 10 11 11 187       
PG09 -18856.142537 -15802.738585 -10888.130510     50.498487 11  8  9 152       
PG10  -1243.333562 -26325.379952   1149.660185     94.958707  8  6  9 182       
PG11  21616.626955  13084.424098  -8722.405529      1.179312 10 10  9 185       
PG12 -12086.798117 -18854.423671  14411.797950    -76.538736 12 12 11 192       
PG13  22098.125783  -3793.103328  14115.667757    126.399793 11  9 10 173       
PG14 -21168.648946  15914.634955   1512.620203      2.823407  9  9 10 145       
PG15 -20350.733066   2807.855551 -17200.806737    327.610607  7 11  4 191       
PG16  -2271.384527  25603.093111   6501.658920    105.952486  9 12  9 199       
PG17  20998.684014 -16108.615927   1304.025441     84.807374  6  8 11 170       
PG18 -15260.748020    622.529272 -21598.846761   -253.694387  9  7  8 174       
PG19   4271.006235  15065.440648 -21347.858230     49.338722 10  9 10 192       
PG20  13297.536463  16345.854532  16102.383165    -21.850408  5 10 11 176       
PG21 -24244.737414  -3031.955932 -10971.155324     66.420567 10  9 10 196       
PG22 -12203.033073  14796.320315 -18204.841104    158.246701  9  9  5 153       
PG23  15894.374425   5824.058238  20436.536885    143.940082 10 11 11 185       
PG24  -8768.925366 -18199.213655  17310.913396     63.380775  5  8  7 167       
PG25  -6421.371355  14143.254648  21957.033284    397.446350  8  8 11 152       
PG26  -3523.157534 -14964.922751 -21984.310037    -65.371548  9  8  5 166       
PG27  25231.184839   4381.512633  -6945.709116     85.270200 10 10 11 202       
PG28  13265.860598 -10432.279929 -20112.240156     11.063959 11 10 11 179       
PG29   1223.964871 -17124.373580 -19936.759160    283.349427  9  8  6 173       
PG30 -15599.004456  -6773.309479  20124.168147     20.696998  7 10  8 172       
PG31  -9725.928735  12251.626338  21665.820895    -14.287126  7 10  6 153       
*  2006 12 26 21 15  0.00000000
PG01 -11551.540750  19820.201245  13539.234909     97.670582  9  7  9 162       
PG02    511.793491 -15921.771620  21048.673915     67.617131  5 10  9 131       
PG03  -5728.454899  21350.464868 -14686.803679    482.159996  8  8 10 161       
PG04  15578.589995  -9019.674954  19586.147566    349.629407  7  6  9 158       
PG05 -13656.522247 -19679.683966  11408.816266    446.804814  4  9  6 166       
PG06 -20183.657530    587.410730  17465.996714    490.086554  7  9 10 167       
PG07 -22031.919454   6906.836832  13509.630833    463.548238  6  9  9 164       
PG08  22665.886330   -865.829652 -14295.037668    -91.056455 10 11 11 184       
PG09 -17581.106129 -15522.062603 -13269.984642     50.498521 11  8  8 161       
PG10   -961.711500 -26045.007636   4025.002320     94.959615  8  6  9 183       
PG11  20436.239021  13179.493401 -11097.727340      1.180398 10  9  9 184       
PG12 -12096.152572 -20370.365107  12150.134069    -76.530901 12 12 11 198       
PG13  20753.265474  -2670.703648  16244.086915    126.403134 11 10 10 177       
PG14 -21276.486249  15765.226924  -1399.580514      2.824167  9  9 10 148       
PG15 -21913.826057   1852.666213 -15330.854975    327.661242  8 11  4 185       
PG16  -2617.613986  24748.293684   9176.544705    105.956508  9 12 10 198       
PG17  21150.644686 -15887.132688  -1555.932189     84.805977  7  8 11 171       
PG18 -15479.711936  -1856.505176 -21400.937864   -253.694197  9  8  9 177       
PG19   2222.170597  16368.786437 -20684.601554     49.342636 10  9 10 190       
PG20  13354.903332  18096.530451  14069.049077    -21.850415  6 10 11 179       
PG21 -25159.187931  -3709.837841  -8488.833781     66.421995 10  9 10 194       
PG22 -12523.261953  12620.922069 -19564.361231    158.248400  9  9  7 162       
PG23  14033.760080   7335.822203  21274.402556    143.941007 10 11 11 187       
PG24  -6854.259617 -17465.763908  18903.057354     63.382409  6  8  7 165       
PG25  -8717.028219  13418.307987  21626.120908    397.440054  8  8 10 154       
PG26  -1551.148414 -16310.621410 -21176.259683    -65.387164  9  8  6 163       
PG27  25823.875688   4829.327308  -4199.517680     85.270906 10 10 11 203       
PG28  13630.724422  -8036.723398 -20969.296020     11.062945 12 11 11 174       
PG29   3065.024045 -18420.062700 -18521.435852    283.367647  9  8  7 171       
PG30 -15870.129625  -9061.147167  19007.620186     20.697912  6 10  9 171       
PG31 -11933.298766  11299.780857  21070.132702    -14.281367  7 10  6 149       
*  2006 12 26 21 30  0.00000000
PG01 -12715.666806  20572.732829  11113.919978     97.675082  9  7  9 162       
PG02   2874.100833 -15165.517135  21388.331153     67.620244  5 10 10 140       
PG03  -6997.113447  22283.613862 -12537.607651    482.176708  9  8 10 157       
PG04  17581.490676  -8179.202193  18249.475618    349.632348  8  6 10 158       
PG05 -13727.977387 -20902.032333   8944.891241    446.821060  6  9  5 168       
PG06 -18805.676858   -947.864827  18936.875255    490.068389  8  9  9 167       
PG07 -21049.771093   5603.544654  15569.738511    463.539292  6  9  9 160       
PG08  23985.261187   -206.427537 -11996.975176    -91.058900 10 11 11 181       
PG09 -16054.321886 -15236.180035 -15433.151256     50.500556 11  8  8 163       
PG10   -610.408595 -25459.787656   6829.568411     94.960209  8  6  9 181       
PG11  19011.115028  13279.695514 -13285.657790      1.181635 10  9  9 178       
PG12 -12132.559274 -21622.476738   9680.889323    -76.523199 12 11 11 202       
PG13  19299.174222  -1329.457502  18090.727632    126.406741 11 10 10 181       
PG14 -21140.683029  15408.826325  -4287.567845      2.825233  9  9 10 155       
PG15 -23318.238198   1069.428346 -13204.299428    327.711788  8 11  4 179       
PG16  -3059.922827  23623.596593  11692.864282    105.960016  9 12 10 195       
PG17  21069.003157 -15462.928119  -4388.923591     84.804739  8  9 11 175       
PG18 -15817.957871  -4274.650321 -20831.343924   -253.694674  9  8  9 179       
PG19    318.528103  17717.475028 -19661.835865     49.346569 10  8  9 188       
PG20  13452.790925  19601.942608  11792.727599    -21.850572  8 10 12 184       
PG21 -25839.524755  -4236.723651  -5864.435466     66.423244 10 10 10 197       
PG22 -12972.121492  10329.873106 -20582.487418    158.250511  9  9  8 170       
PG23  12199.098778   8995.059405  21744.579552    143.941961 10 11 11 187       
PG24  -4758.172213 -16772.619458  20172.614660     63.385114  6  8  6 160       
PG25 -10992.035138  12829.007586  20937.066314    397.433386  8  8 10 154       
PG26    260.413184 -17700.817461 -20012.504660    -65.402916  8  8  6 167       
PG27  26135.774425   5155.707897  -1381.344808     85.272621 10 10 12 206       
PG28  14129.838243  -5589.419257 -21453.473863     11.062208 12 11 12 176       
PG29   4695.842514 -19696.364686 -16777.909161    283.386115  9  8  7 175       
PG30 -16220.209003 -11187.612769  17556.788410     20.697597  6 10  9 169       
PG31 -14105.679520  10493.229278  20118.401555    -14.275166  7  9  6 144       
EOF
